{"type": "FeatureCollection", "features": [ {"type": "Feature", "properties": {"norad_id": 29973, "name": "FENGYUN 1C DEB", "group": "fengyun-1c-debris", "lat": 70.30565472320895, "lon": -42.811612091686875, "alt_km": 863.3186027659749, "timestamp": "2025-12-08T08:59:01.038579+00:00", "meta": {"OBJECT_NAME": "FENGYUN 1C DEB", "OBJECT_ID": "1999-025KX", "EPOCH": "2025-12-07T22:41:34.005408", "MEAN_MOTION": 14.06520781, "ECCENTRICITY": 0.00591169, "INCLINATION": 98.8424, "RA_OF_ASC_NODE": 342.5476, "ARG_OF_PERICENTER": 162.3859, "MEAN_ANOMALY": 260.7169, "EPHEMERIS_TYPE": 0, "CLASSIFICATION_TYPE": "U", "NORAD_CAT_ID": 29973, "ELEMENT_SET_NO": 999, "REV_AT_EPOCH": 96651, "BSTAR": 0.001070705, "MEAN_MOTION_DOT": 1.757e-05, "MEAN_MOTION_DDOT": 0}, "tle": {"line1": "1 29973U 99025KX  25341.94553247  .00001757  00000+0  10707-2 0  9995", "line2": "2 29973  98.8424 342.5476 0059116 162.3859 260.7169 14.06520781966516"}}, "geometry": {"type": "Point", "coordinates": [-42.811612091686875, 70.30565472320895]}}, {"type": "Feature", "properties": {"norad_id": 29974, "name": "FENGYUN 1C DEB", "group": "fengyun-1c-debris", "lat": 17.65724701525823, "lon": -110.5794495480418, "alt_km": 830.1637097625844, "timestamp": "2025-12-08T08:59:01.038589+00:00", "meta": {"OBJECT_NAME": "FENGYUN 1C DEB", "OBJECT_ID": "1999-025KY", "EPOCH": "2025-12-07T19:14:47.710176", "MEAN_MOTION": 14.1481667, "ECCENTRICITY": 0.00470917, "INCLINATION": 98.8939, "RA_OF_ASC_NODE": 65.9933, "ARG_OF_PERICENTER": 96.0613, "MEAN_ANOMALY": 31.7661, "EPHEMERIS_TYPE": 0, "CLASSIFICATION_TYPE": "U", "NORAD_CAT_ID": 29974, "ELEMENT_SET_NO": 999, "REV_AT_EPOCH": 96855, "BSTAR": 0.0018868495, "MEAN_MOTION_DOT": 3.636e-05, "MEAN_MOTION_DDOT": 0}, "tle": {"line1": "1 29974U 99025KY  25341.80194109  .00003636  00000+0  18868-2 0  9993", "line2": "2 29974  98.8939  65.9933 0047091  96.0613  31.7661 14.14816670968555"}}, "geometry": {"type": "Point", "coordinates": [-110.5794495480418, 17.65724701525823]}}, {"type": "Feature", "properties": {"norad_id": 29975, "name": "FENGYUN 1C DEB", "group": "fengyun-1c-debris", "lat": 61.086605118619524, "lon": 6.02818455976814, "alt_km": 828.0250688323131, "timestamp": "2025-12-08T08:59:01.038599+00:00", "meta": {"OBJECT_NAME": "FENGYUN 1C DEB", "OBJECT_ID": "1999-025KZ", "EPOCH": "2025-12-07T21:31:10.523712", "MEAN_MOTION": 13.98024248, "ECCENTRICITY": 0.01138924, "INCLINATION": 99.3403, "RA_OF_ASC_NODE": 22.8782, "ARG_OF_PERICENTER": 26.9367, "MEAN_ANOMALY": 152.1005, "EPHEMERIS_TYPE": 0, "CLASSIFICATION_TYPE": "U", "NORAD_CAT_ID": 29975, "ELEMENT_SET_NO": 999, "REV_AT_EPOCH": 96369, "BSTAR": 0.00010527217, "MEAN_MOTION_DOT": 1.12e-06, "MEAN_MOTION_DDOT": 0}, "tle": {"line1": "1 29975U 99025KZ  25341.89664958  .00000112  00000+0  10527-3 0  9998", "line2": "2 29975  99.3403  22.8782 0113892  26.9367 152.1005 13.98024248963696"}}, "geometry": {"type": "Point", "coordinates": [6.02818455976814, 61.086605118619524]}}, {"type": "Feature", "properties": {"norad_id": 29976, "name": "FENGYUN 1C DEB", "group": "fengyun-1c-debris", "lat": -55.50794984861739, "lon": 146.59072769493554, "alt_km": 719.060794994416, "timestamp": "2025-12-08T08:59:01.038609+00:00", "meta": {"OBJECT_NAME": "FENGYUN 1C DEB", "OBJECT_ID": "1999-025LA", "EPOCH": "2025-12-07T23:31:32.537280", "MEAN_MOTION": 13.98101346, "ECCENTRICITY": 0.0267534, "INCLINATION": 98.9176, "RA_OF_ASC_NODE": 339.4171, "ARG_OF_PERICENTER": 252.7415, "MEAN_ANOMALY": 162.1388, "EPHEMERIS_TYPE": 0, "CLASSIFICATION_TYPE": "U", "NORAD_CAT_ID": 29976, "ELEMENT_SET_NO": 999, "REV_AT_EPOCH": 96270, "BSTAR": 0.00032251413, "MEAN_MOTION_DOT": 5.77e-06, "MEAN_MOTION_DDOT": 0}, "tle": {"line1": "1 29976U 99025LA  25341.98023770  .00000577  00000+0  32251-3 0  9993", "line2": "2 29976  98.9176 339.4171 0267534 252.7415 162.1388 13.98101346962705"}}, "geometry": {"type": "Point", "coordinates": [146.59072769493554, -55.50794984861739]}}, {"type": "Feature", "properties": {"norad_id": 29977, "name": "FENGYUN 1C DEB", "group": "fengyun-1c-debris", "lat": 59.199949516638675, "lon": -169.60013043459082, "alt_km": 951.787009787, "timestamp": "2025-12-08T08:59:01.038619+00:00", "meta": {"OBJECT_NAME": "FENGYUN 1C DEB", "OBJECT_ID": "1999-025LB", "EPOCH": "2025-12-07T14:01:59.095200", "MEAN_MOTION": 14.05052119, "ECCENTRICITY": 0.01285467, "INCLINATION": 98.3936, "RA_OF_ASC_NODE": 204.009, "ARG_OF_PERICENTER": 271.6427, "MEAN_ANOMALY": 116.2032, "EPHEMERIS_TYPE": 0, "CLASSIFICATION_TYPE": "U", "NORAD_CAT_ID": 29977, "ELEMENT_SET_NO": 999, "REV_AT_EPOCH": 96288, "BSTAR": 0.0021426094, "MEAN_MOTION_DOT": 3.678e-05, "MEAN_MOTION_DDOT": 0}, "tle": {"line1": "1 29977U 99025LB  25341.58471175  .00003678  00000+0  21426-2 0  9992", "line2": "2 29977  98.3936 204.0090 0128546 271.6427 116.2032 14.05052119962880"}}, "geometry": {"type": "Point", "coordinates": [-169.60013043459082, 59.199949516638675]}}, {"type": "Feature", "properties": {"norad_id": 29978, "name": "FENGYUN 1C DEB", "group": "fengyun-1c-debris", "lat": -71.48246606322962, "lon": 61.34997483901428, "alt_km": 956.565297806118, "timestamp": "2025-12-08T08:59:01.038630+00:00", "meta": {"OBJECT_NAME": "FENGYUN 1C DEB", "OBJECT_ID": "1999-025LC", "EPOCH": "2025-12-07T18:26:53.729088", "MEAN_MOTION": 13.95906318, "ECCENTRICITY": 0.0076841, "INCLINATION": 99.0622, "RA_OF_ASC_NODE": 32.2972, "ARG_OF_PERICENTER": 65.7335, "MEAN_ANOMALY": 59.2671, "EPHEMERIS_TYPE": 0, "CLASSIFICATION_TYPE": "U", "NORAD_CAT_ID": 29978, "ELEMENT_SET_NO": 999, "REV_AT_EPOCH": 96247, "BSTAR": 8.7566016e-05, "MEAN_MOTION_DOT": 7.9e-07, "MEAN_MOTION_DDOT": 0}, "tle": {"line1": "1 29978U 99025LC  25341.76867742  .00000079  00000+0  87566-4 0  9993", "line2": "2 29978  99.0622  32.2972 0076841  65.7335  59.2671 13.95906318962478"}}, "geometry": {"type": "Point", "coordinates": [61.34997483901428, -71.48246606322962]}}, {"type": "Feature", "properties": {"norad_id": 29979, "name": "FENGYUN 1C DEB", "group": "fengyun-1c-debris", "lat": -11.235614921668757, "lon": -175.89824596631698, "alt_km": 735.2146190514522, "timestamp": "2025-12-08T08:59:01.038641+00:00", "meta": {"OBJECT_NAME": "FENGYUN 1C DEB", "OBJECT_ID": "1999-025LD", "EPOCH": "2025-12-07T23:57:19.200960", "MEAN_MOTION": 14.25947365, "ECCENTRICITY": 0.0107328, "INCLINATION": 98.3706, "RA_OF_ASC_NODE": 5.4184, "ARG_OF_PERICENTER": 176.84, "MEAN_ANOMALY": 244.098, "EPHEMERIS_TYPE": 0, "CLASSIFICATION_TYPE": "U", "NORAD_CAT_ID": 29979, "ELEMENT_SET_NO": 999, "REV_AT_EPOCH": 98006, "BSTAR": 0.00068755874, "MEAN_MOTION_DOT": 1.7e-05, "MEAN_MOTION_DDOT": 0}, "tle": {"line1": "1 29979U 99025LD  25341.99813890  .00001700  00000+0  68756-3 0  9995", "line2": "2 29979  98.3706   5.4184 0107328 176.8400 244.0980 14.25947365980066"}}, "geometry": {"type": "Point", "coordinates": [-175.89824596631698, -11.235614921668757]}}, {"type": "Feature", "properties": {"norad_id": 29980, "name": "FENGYUN 1C DEB", "group": "fengyun-1c-debris", "lat": 67.16517799520567, "lon": 130.83200254951186, "alt_km": 927.0811959674729, "timestamp": "2025-12-08T08:59:01.038651+00:00", "meta": {"OBJECT_NAME": "FENGYUN 1C DEB", "OBJECT_ID": "1999-025LE", "EPOCH": "2025-12-07T23:00:54.322848", "MEAN_MOTION": 14.06309842, "ECCENTRICITY": 0.00867671, "INCLINATION": 98.5514, "RA_OF_ASC_NODE": 151.3758, "ARG_OF_PERICENTER": 261.5016, "MEAN_ANOMALY": 225.4337, "EPHEMERIS_TYPE": 0, "CLASSIFICATION_TYPE": "U", "NORAD_CAT_ID": 29980, "ELEMENT_SET_NO": 999, "REV_AT_EPOCH": 96925, "BSTAR": 0.00021047707, "MEAN_MOTION_DOT": 3.17e-06, "MEAN_MOTION_DDOT": 0}, "tle": {"line1": "1 29980U 99025LE  25341.95896207  .00000317  00000+0  21048-3 0  9992", "line2": "2 29980  98.5514 151.3758 0086767 261.5016 225.4337 14.06309842969251"}}, "geometry": {"type": "Point", "coordinates": [130.83200254951186, 67.16517799520567]}}, {"type": "Feature", "properties": {"norad_id": 29982, "name": "FENGYUN 1C DEB", "group": "fengyun-1c-debris", "lat": -60.86930753759608, "lon": -34.28746301639608, "alt_km": 633.748884370606, "timestamp": "2025-12-08T08:59:01.038661+00:00", "meta": {"OBJECT_NAME": "FENGYUN 1C DEB", "OBJECT_ID": "1999-025LG", "EPOCH": "2025-12-07T18:50:27.445632", "MEAN_MOTION": 14.66821503, "ECCENTRICITY": 0.01220782, "INCLINATION": 99.4015, "RA_OF_ASC_NODE": 162.3334, "ARG_OF_PERICENTER": 303.4453, "MEAN_ANOMALY": 70.0647, "EPHEMERIS_TYPE": 0, "CLASSIFICATION_TYPE": "U", "NORAD_CAT_ID": 29982, "ELEMENT_SET_NO": 999, "REV_AT_EPOCH": 211, "BSTAR": 0.0011240991, "MEAN_MOTION_DOT": 6.949e-05, "MEAN_MOTION_DDOT": 0}, "tle": {"line1": "1 29982U 99025LG  25341.78503988  .00006949  00000+0  11241-2 0  9996", "line2": "2 29982  99.4015 162.3334 0122078 303.4453  70.0647 14.66821503  2118"}}, "geometry": {"type": "Point", "coordinates": [-34.28746301639608, -60.86930753759608]}}, {"type": "Feature", "properties": {"norad_id": 29985, "name": "FENGYUN 1C DEB", "group": "fengyun-1c-debris", "lat": -53.861354205835305, "lon": 9.690493216603961, "alt_km": 862.922908112294, "timestamp": "2025-12-08T08:59:01.038671+00:00", "meta": {"OBJECT_NAME": "FENGYUN 1C DEB", "OBJECT_ID": "1999-025LK", "EPOCH": "2025-12-07T23:19:08.863104", "MEAN_MOTION": 14.10322528, "ECCENTRICITY": 0.00279166, "INCLINATION": 98.7107, "RA_OF_ASC_NODE": 357.1815, "ARG_OF_PERICENTER": 222.8279, "MEAN_ANOMALY": 198.7726, "EPHEMERIS_TYPE": 0, "CLASSIFICATION_TYPE": "U", "NORAD_CAT_ID": 29985, "ELEMENT_SET_NO": 999, "REV_AT_EPOCH": 97281, "BSTAR": 8.4305496e-05, "MEAN_MOTION_DOT": 1.07e-06, "MEAN_MOTION_DDOT": 0}, "tle": {"line1": "1 29985U 99025LK  25341.97163036  .00000107  00000+0  84305-4 0  9999", "line2": "2 29985  98.7107 357.1815 0027916 222.8279 198.7726 14.10322528972819"}}, "geometry": {"type": "Point", "coordinates": [9.690493216603961, -53.861354205835305]}}]}